[{"OBJECT_NAME":"STARLINK-30904","OBJECT_ID":"2023-177P","EPOCH":"2026-03-09T03:14:35.816064","MEAN_MOTION":15.04843361,"ECCENTRICITY":0.00033156,"INCLINATION":43.0031,"RA_OF_ASC_NODE":352.7825,"ARG_OF_PERICENTER":207.9991,"MEAN_ANOMALY":152.0675,"EPHEMERIS_TYPE":0,"CLASSIFICATION_TYPE":"U","NORAD_CAT_ID":58364,"ELEMENT_SET_NO":999,"REV_AT_EPOCH":12815,"BSTAR":0.0028204427,"MEAN_MOTION_DOT":0.00040548,"MEAN_MOTION_DDOT":0},{"OBJECT_NAME":"LEMUR-2-SQUIRRELCOMM","OBJECT_ID":"2024-149DQ","EPOCH":"2026-03-09T21:26:31.466400","MEAN_MOTION":15.05887962,"ECCENTRICITY":0.00061012,"INCLINATION":97.6754,"RA_OF_ASC_NODE":150.1976,"ARG_OF_PERICENTER":42.3481,"MEAN_ANOMALY":317.8216,"EPHEMERIS_TYPE":0,"CLASSIFICATION_TYPE":"U","NORAD_CAT_ID":60578,"ELEMENT_SET_NO":999,"REV_AT_EPOCH":8545,"BSTAR":0.00060830109,"MEAN_MOTION_DOT":8.786e-5,"MEAN_MOTION_DDOT":0}]
